[{"OBJECT_NAME":"FLOCK 4G-21","OBJECT_ID":"2025-009AU","EPOCH":"2026-03-09T04:40:37.351200","MEAN_MOTION":15.28381075,"ECCENTRICITY":4.655e-5,"INCLINATION":97.4032,"RA_OF_ASC_NODE":151.1274,"ARG_OF_PERICENTER":329.5782,"MEAN_ANOMALY":30.5431,"EPHEMERIS_TYPE":0,"CLASSIFICATION_TYPE":"U","NORAD_CAT_ID":62651,"ELEMENT_SET_NO":999,"REV_AT_EPOCH":6367,"BSTAR":0.00049618643,"MEAN_MOTION_DOT":0.00013648,"MEAN_MOTION_DDOT":0},{"OBJECT_NAME":"STARLINK-33820","OBJECT_ID":"2025-076R","EPOCH":"2026-03-09T02:07:40.280160","MEAN_MOTION":15.2759155,"ECCENTRICITY":0.00017722,"INCLINATION":42.9942,"RA_OF_ASC_NODE":324.6421,"ARG_OF_PERICENTER":222.3018,"MEAN_ANOMALY":137.7697,"EPHEMERIS_TYPE":0,"CLASSIFICATION_TYPE":"U","NORAD_CAT_ID":63584,"ELEMENT_SET_NO":999,"REV_AT_EPOCH":5174,"BSTAR":0.0010224918,"MEAN_MOTION_DOT":0.00027992,"MEAN_MOTION_DDOT":0}]
